start=new Date('2021-10-02T00:00:00.000Z').valueOf();
sats=[{"RCS_SIZE":"MEDIUM","NORAD_CAT_ID":"47726","GP_ID":"185961055","CLASSIFICATION_TYPE":"U","MEAN_MOTION":"15.06404262","REF_FRAME":"TEME","TLE_LINE2":"2 47726  53.0554 273.8493 0001162  77.3285 282.7834 15.06404262 33693","ECCENTRICITY":"0.00011620","SITE":"AFETR","MEAN_MOTION_DOT":"0.00001972","CENTER_NAME":"EARTH","LAUNCH_DATE":"2021-03-04","OBJECT_NAME":"STARLINK-2126","ELEMENT_SET_NO":"999","EPOCH":"2021-10-01T17:43:49.214784","APOAPSIS":"548.005","EPHEMERIS_TYPE":"0","TLE_LINE1":"1 47726U 21017E   21274.73876406  .00001972  00000-0  15125-3 0  9990","INCLINATION":"53.0554","BSTAR":"0.00015125000000","TIME_SYSTEM":"UTC","DECAY_DATE":null,"PERIOD":"95.592","MEAN_MOTION_DDOT":"0.0000000000000","COUNTRY_CODE":"US","REV_AT_EPOCH":"3369","ARG_OF_PERICENTER":"77.3285","SEMIMAJOR_AXIS":"6925.335","OBJECT_ID":"2021-017E","RA_OF_ASC_NODE":"273.8493","PERIAPSIS":"546.396","FILE":"3139397","MEAN_ELEMENT_THEORY":"SGP4","OBJECT_TYPE":"PAYLOAD","MEAN_ANOMALY":"282.7834"},{"OBJECT_TYPE":"PAYLOAD","MEAN_ANOMALY":"292.7442","MEAN_ELEMENT_THEORY":"SGP4","FILE":"3139397","PERIAPSIS":"384.234","RA_OF_ASC_NODE":"213.4636","ARG_OF_PERICENTER":"67.3906","OBJECT_ID":"2021-017F","SEMIMAJOR_AXIS":"6764.517","REV_AT_EPOCH":"3458","PERIOD":"92.282","COUNTRY_CODE":"US","MEAN_MOTION_DDOT":"0.0000000000000","TIME_SYSTEM":"UTC","DECAY_DATE":null,"BSTAR":"0.00045499000000","INCLINATION":"53.0407","TLE_LINE1":"1 47727U 21017F   21274.82815366  .00037758  00000-0  45499-3 0  9997","EPHEMERIS_TYPE":"0","APOAPSIS":"388.531","ELEMENT_SET_NO":"999","EPOCH":"2021-10-01T19:52:32.476224","OBJECT_NAME":"STARLINK-2129","MEAN_MOTION_DOT":"0.00037758","CENTER_NAME":"EARTH","LAUNCH_DATE":"2021-03-04","SITE":"AFETR","ECCENTRICITY":"0.00031760","TLE_LINE2":"2 47727  53.0407 213.4636 0003176  67.3906 292.7442 15.60441625 34585","MEAN_MOTION":"15.60441625","REF_FRAME":"TEME","NORAD_CAT_ID":"47727","GP_ID":"185962300","CLASSIFICATION_TYPE":"U","RCS_SIZE":"LARGE"},{"ELEMENT_SET_NO":"999","EPOCH":"2021-10-01T17:06:39.565152","OBJECT_NAME":"STARLINK-2131","APOAPSIS":"547.823","INCLINATION":"53.0564","TLE_LINE1":"1 47728U 21017G   21274.71295793  .00001763  00000-0  13721-3 0  9992","EPHEMERIS_TYPE":"0","TIME_SYSTEM":"UTC","DECAY_DATE":null,"BSTAR":"0.00013721000000","GP_ID":"185962053","NORAD_CAT_ID":"47728","CLASSIFICATION_TYPE":"U","RCS_SIZE":"LARGE","MEAN_MOTION":"15.06405951","REF_FRAME":"TEME","TLE_LINE2":"2 47728  53.0564 273.9721 0000907  62.4857 297.6224 15.06405951 33758","ECCENTRICITY":"0.00009070","CENTER_NAME":"EARTH","MEAN_MOTION_DOT":"0.00001763","LAUNCH_DATE":"2021-03-04","SITE":"AFETR","MEAN_ELEMENT_THEORY":"SGP4","FILE":"3139397","MEAN_ANOMALY":"297.6224","OBJECT_TYPE":"PAYLOAD","PERIOD":"95.592","MEAN_MOTION_DDOT":"0.0000000000000","COUNTRY_CODE":"US","ARG_OF_PERICENTER":"62.4857","SEMIMAJOR_AXIS":"6925.330","OBJECT_ID":"2021-017G","REV_AT_EPOCH":"3375","RA_OF_ASC_NODE":"273.9721","PERIAPSIS":"546.567"},{"APOAPSIS":"505.694","EPOCH":"2021-10-01T21:09:43.196544","ELEMENT_SET_NO":"999","OBJECT_NAME":"STARLINK-2132","TIME_SYSTEM":"UTC","DECAY_DATE":null,"BSTAR":"-0.01175000000000","TLE_LINE1":"1 47729U 21017H   21274.88174996 -.00252119  00000-0 -11750-1 0  9995","INCLINATION":"53.0403","EPHEMERIS_TYPE":"0","MEAN_MOTION":"15.20570348","REF_FRAME":"TEME","NORAD_CAT_ID":"47729","GP_ID":"185961306","CLASSIFICATION_TYPE":"U","RCS_SIZE":"LARGE","CENTER_NAME":"EARTH","MEAN_MOTION_DOT":"-0.00252119","LAUNCH_DATE":"2021-03-04","SITE":"AFETR","ECCENTRICITY":"0.00022860","TLE_LINE2":"2 47729  53.0403 218.4601 0002286 102.8230 257.3021 15.20570348 34486","OBJECT_TYPE":"PAYLOAD","MEAN_ANOMALY":"257.3021","MEAN_ELEMENT_THEORY":"SGP4","FILE":"3139397","ARG_OF_PERICENTER":"102.8230","SEMIMAJOR_AXIS":"6882.256","OBJECT_ID":"2021-017H","REV_AT_EPOCH":"3448","PERIOD":"94.701","COUNTRY_CODE":"US","MEAN_MOTION_DDOT":"0.0000000000000","PERIAPSIS":"502.548","RA_OF_ASC_NODE":"218.4601"},{"APOAPSIS":"547.961","OBJECT_NAME":"STARLINK-2140","ELEMENT_SET_NO":"999","EPOCH":"2021-10-01T17:37:49.080576","BSTAR":"0.00003179900000","DECAY_DATE":null,"TIME_SYSTEM":"UTC","EPHEMERIS_TYPE":"0","TLE_LINE1":"1 47730U 21017J   21274.73459584  .00000192  00000-0  31799-4 0  9998","INCLINATION":"53.0565","MEAN_MOTION":"15.06406745","REF_FRAME":"TEME","RCS_SIZE":"LARGE","CLASSIFICATION_TYPE":"U","GP_ID":"185961556","NORAD_CAT_ID":"47730","SITE":"AFETR","LAUNCH_DATE":"2021-03-04","MEAN_MOTION_DOT":"0.00000192","CENTER_NAME":"EARTH","ECCENTRICITY":"0.00011090","TLE_LINE2":"2 47730  53.0565 288.8771 0001109  78.6732 281.4382 15.06406745 33497","OBJECT_TYPE":"PAYLOAD","MEAN_ANOMALY":"281.4382","FILE":"3139397","MEAN_ELEMENT_THEORY":"SGP4","REV_AT_EPOCH":"3349","SEMIMAJOR_AXIS":"6925.328","OBJECT_ID":"2021-017J","ARG_OF_PERICENTER":"78.6732","COUNTRY_CODE":"US","MEAN_MOTION_DDOT":"0.0000000000000","PERIOD":"95.592","PERIAPSIS":"546.425","RA_OF_ASC_NODE":"288.8771"},{"FILE":"3139397","MEAN_ELEMENT_THEORY":"SGP4","OBJECT_TYPE":"PAYLOAD","MEAN_ANOMALY":"271.8177","PERIOD":"95.591","MEAN_MOTION_DDOT":"0.0000000000000","COUNTRY_CODE":"US","REV_AT_EPOCH":"3357","ARG_OF_PERICENTER":"88.2930","SEMIMAJOR_AXIS":"6925.293","OBJECT_ID":"2021-017K","RA_OF_ASC_NODE":"283.8443","PERIAPSIS":"546.442","OBJECT_NAME":"STARLINK-2141","ELEMENT_SET_NO":"999","EPOCH":"2021-10-01T17:47:48.064128","APOAPSIS":"547.874","EPHEMERIS_TYPE":"0","TLE_LINE1":"1 47731U 21017K   21274.74152852  .00005731  00000-0  40311-3 0  9991","INCLINATION":"53.0551","BSTAR":"0.00040311000000","TIME_SYSTEM":"UTC","DECAY_DATE":null,"RCS_SIZE":"LARGE","GP_ID":"185961800","NORAD_CAT_ID":"47731","CLASSIFICATION_TYPE":"U","MEAN_MOTION":"15.06418031","REF_FRAME":"TEME","ECCENTRICITY":"0.00010340","TLE_LINE2":"2 47731  53.0551 283.8443 0001034  88.2930 271.8177 15.06418031 33573","SITE":"AFETR","CENTER_NAME":"EARTH","MEAN_MOTION_DOT":"0.00005731","LAUNCH_DATE":"2021-03-04"},{"TLE_LINE1":"1 47732U 21017L   21274.53977805  .00045038  00000-0  32278-3 0  9999","INCLINATION":"53.0399","EPHEMERIS_TYPE":"0","TIME_SYSTEM":"UTC","DECAY_DATE":null,"BSTAR":"0.00032278000000","EPOCH":"2021-10-01T12:57:16.823520","ELEMENT_SET_NO":"999","OBJECT_NAME":"STARLINK-2142","APOAPSIS":"352.538","ECCENTRICITY":"0.00043250","TLE_LINE2":"2 47732  53.0399 214.5450 0004325 334.0947  25.9854 15.73246375 33887","CENTER_NAME":"EARTH","MEAN_MOTION_DOT":"0.00045038","LAUNCH_DATE":"2021-03-04","SITE":"AFETR","NORAD_CAT_ID":"47732","GP_ID":"185933039","CLASSIFICATION_TYPE":"U","RCS_SIZE":"LARGE","MEAN_MOTION":"15.73246375","REF_FRAME":"TEME","MEAN_ELEMENT_THEORY":"SGP4","FILE":"3139083","MEAN_ANOMALY":"25.9854","OBJECT_TYPE":"PAYLOAD","RA_OF_ASC_NODE":"214.5450","PERIAPSIS":"346.718","PERIOD":"91.530","MEAN_MOTION_DDOT":"0.0000000000000","COUNTRY_CODE":"US","ARG_OF_PERICENTER":"334.0947","SEMIMAJOR_AXIS":"6727.763","OBJECT_ID":"2021-017L","REV_AT_EPOCH":"3388"},{"PERIAPSIS":"546.390","RA_OF_ASC_NODE":"293.6953","SEMIMAJOR_AXIS":"6925.342","OBJECT_ID":"2021-017M","ARG_OF_PERICENTER":"74.9139","REV_AT_EPOCH":"3348","COUNTRY_CODE":"US","MEAN_MOTION_DDOT":"0.0000000000000","PERIOD":"95.592","MEAN_ANOMALY":"285.1981","OBJECT_TYPE":"PAYLOAD","MEAN_ELEMENT_THEORY":"SGP4","FILE":"3139397","LAUNCH_DATE":"2021-03-04","MEAN_MOTION_DOT":"0.00000469","CENTER_NAME":"EARTH","SITE":"AFETR","ECCENTRICITY":"0.00011790","TLE_LINE2":"2 47733  53.0563 293.6953 0001179  74.9139 285.1981 15.06402167 33480","MEAN_MOTION":"15.06402167","REF_FRAME":"TEME","CLASSIFICATION_TYPE":"U","NORAD_CAT_ID":"47733","GP_ID":"185960806","RCS_SIZE":"LARGE","DECAY_DATE":null,"TIME_SYSTEM":"UTC","BSTAR":"0.00005034800000","TLE_LINE1":"1 47733U 21017M   21274.79590265  .00000469  00000-0  50348-4 0  9997","INCLINATION":"53.0563","EPHEMERIS_TYPE":"0","APOAPSIS":"548.023","EPOCH":"2021-10-01T19:06:05.988960","ELEMENT_SET_NO":"999","OBJECT_NAME":"STARLINK-2143"},{"OBJECT_NAME":"STARLINK-2144","EPOCH":"2021-10-01T17:58:25.963104","ELEMENT_SET_NO":"999","APOAPSIS":"548.211","EPHEMERIS_TYPE":"0","TLE_LINE1":"1 47734U 21017N   21274.74891161  .00000438  00000-0  48316-4 0  9990","INCLINATION":"53.0554","BSTAR":"0.00004831600000","DECAY_DATE":null,"TIME_SYSTEM":"UTC","RCS_SIZE":"LARGE","CLASSIFICATION_TYPE":"U","NORAD_CAT_ID":"47734","GP_ID":"185961056","MEAN_MOTION":"15.06395526","REF_FRAME":"TEME","ECCENTRICITY":"0.00014200","TLE_LINE2":"2 47734  53.0554 283.8107 0001420  63.9437 296.1698 15.06395526 33589","SITE":"AFETR","LAUNCH_DATE":"2021-03-04","CENTER_NAME":"EARTH","MEAN_MOTION_DOT":"0.00000438","FILE":"3139397","MEAN_ELEMENT_THEORY":"SGP4","OBJECT_TYPE":"PAYLOAD","MEAN_ANOMALY":"296.1698","MEAN_MOTION_DDOT":"0.0000000000000","COUNTRY_CODE":"US","PERIOD":"95.592","REV_AT_EPOCH":"3358","OBJECT_ID":"2021-017N","SEMIMAJOR_AXIS":"6925.362","ARG_OF_PERICENTER":"63.9437","RA_OF_ASC_NODE":"283.8107","PERIAPSIS":"546.244"},{"ARG_OF_PERICENTER":"110.2714","SEMIMAJOR_AXIS":"6762.675","OBJECT_ID":"2021-017P","REV_AT_EPOCH":"3388","PERIOD":"92.244","COUNTRY_CODE":"US","MEAN_MOTION_DDOT":"0.0000000000000","PERIAPSIS":"384.206","RA_OF_ASC_NODE":"214.7039","OBJECT_TYPE":"PAYLOAD","MEAN_ANOMALY":"249.8352","MEAN_ELEMENT_THEORY":"SGP4","FILE":"3139084","MEAN_MOTION":"15.61079241","REF_FRAME":"TEME","GP_ID":"185933045","NORAD_CAT_ID":"47735","CLASSIFICATION_TYPE":"U","RCS_SIZE":"LARGE","CENTER_NAME":"EARTH","MEAN_MOTION_DOT":"-0.00418356","LAUNCH_DATE":"2021-03-04","SITE":"AFETR","TLE_LINE2":"2 47735  53.0409 214.7039 0000494 110.2714 249.8352 15.61079241 33889","ECCENTRICITY":"0.00004940","APOAPSIS":"384.874","EPOCH":"2021-10-01T13:33:13.727808","ELEMENT_SET_NO":"999","OBJECT_NAME":"STARLINK-2146","TIME_SYSTEM":"UTC","DECAY_DATE":null,"BSTAR":"-0.00512700000000","TLE_LINE1":"1 47735U 21017P   21274.56474222 -.00418356  00000-0 -51270-2 0  9991","INCLINATION":"53.0409","EPHEMERIS_TYPE":"0"}];
